{"type": "FeatureCollection", "features": [{"type": "Feature", "geometry": {"type": "Polygon", "coordinates": [[[117.6, -29.6215], [117.7983, -29.6289], [117.9953, -29.6509], [118.1893, -29.6876], [118.3792, -29.7384], [118.5635, -29.8032], [118.7408, -29.8815], [118.9099, -29.9726], [119.0695, -30.076], [119.2185, -30.1908], [119.3556, -30.3162], [119.48, -30.4514], [119.5906, -30.5953], [119.6865, -30.7469], [119.7669, -30.905], [119.8313, -31.0685], [119.8789, -31.2362], [119.9095, -31.4068], [119.9226, -31.579], [119.918, -31.7515], [119.8958, -31.923], [119.8559, -32.0923], [119.7986, -32.2579], [119.7242, -32.4186], [119.6333, -32.5732], [119.5264, -32.7204], [119.4042, -32.8591], [119.2678, -32.9882], [119.1181, -33.1067], [118.9563, -33.2136], [118.7835, -33.308], [118.6013, -33.3892], [118.4109, -33.4566], [118.214, -33.5096], [118.0122, -33.5478], [117.8069, -33.5708], [117.6, -33.5785], [117.3931, -33.5708], [117.1878, -33.5478], [116.986, -33.5096], [116.7891, -33.4566], [116.5987, -33.3892], [116.4165, -33.308], [116.2437, -33.2136], [116.0819, -33.1067], [115.9322, -32.9882], [115.7958, -32.8591], [115.6736, -32.7204], [115.5667, -32.5732], [115.4758, -32.4186], [115.4014, -32.2579], [115.3441, -32.0923], [115.3042, -31.923], [115.282, -31.7515], [115.2774, -31.579], [115.2905, -31.4068], [115.3211, -31.2362], [115.3687, -31.0685], [115.4331, -30.905], [115.5135, -30.7469], [115.6094, -30.5953], [115.72, -30.4514], [115.8444, -30.3162], [115.9815, -30.1908], [116.1305, -30.076], [116.2901, -29.9726], [116.4592, -29.8815], [116.6365, -29.8032], [116.8208, -29.7384], [117.0107, -29.6876], [117.2047, -29.6509], [117.4017, -29.6289], [117.6, -29.6215]]]}, "properties": {"id": "wa-salt", "name": "WA wheatbelt saline valley floors", "land_type": "Salt-affected or hypersaline", "typical_ece_dSm": 12, "radius_km": 220, "note": "1 to 2 Mha salt-affected, rising saline water tables after clearing", "stage_1": "Cut recharge with deep-rooted perennials upslope and plant saltbush or bluebush on the flats. Stop bare soil.", "stage_2": "Halophyte forage for grazing. Salicornia for sea vegetable, seed oil or biomass. Salt-tolerant barley, quinoa and potato where salinity is moderate.", "stage_3": "Couple seawater or saline-groundwater aquaculture with halophyte beds so fish effluent feeds the crop and the crop cleans the water.", "plants": "Saltbush and bluebush (Atriplex, Maireana); Salicornia and Sarcocornia (samphire); Puccinellia and tall wheatgrass; Salt-tolerant potato, barley, quinoa; Mangroves and Nypa palm", "approximate": "yes, orientation only"}}, {"type": "Feature", "geometry": {"type": "Polygon", "coordinates": [[[143.9, -34.251], [144.0422, -34.2561], [144.1834, -34.2712], [144.3226, -34.2962], [144.4587, -34.3311], [144.5907, -34.3754], [144.7177, -34.429], [144.8387, -34.4913], [144.9529, -34.562], [145.0594, -34.6406], [145.1573, -34.7263], [145.246, -34.8187], [145.3247, -34.9171], [145.3929, -35.0207], [145.45, -35.1287], [145.4954, -35.2403], [145.5289, -35.3548], [145.5502, -35.4712], [145.5589, -35.5886], [145.555, -35.7063], [145.5385, -35.8232], [145.5094, -35.9385], [145.4679, -36.0512], [145.4143, -36.1607], [145.349, -36.2658], [145.2723, -36.366], [145.1849, -36.4603], [145.0873, -36.5481], [144.9804, -36.6286], [144.865, -36.7012], [144.7419, -36.7653], [144.6121, -36.8205], [144.4767, -36.8663], [144.3366, -36.9022], [144.193, -36.9281], [144.0471, -36.9438], [143.9, -36.949], [143.7529, -36.9438], [143.607, -36.9281], [143.4634, -36.9022], [143.3233, -36.8663], [143.1879, -36.8205], [143.0581, -36.7653], [142.935, -36.7012], [142.8196, -36.6286], [142.7127, -36.5481], [142.6151, -36.4603], [142.5277, -36.366], [142.451, -36.2658], [142.3857, -36.1607], [142.3321, -36.0512], [142.2906, -35.9385], [142.2615, -35.8232], [142.245, -35.7063], [142.2411, -35.5886], [142.2498, -35.4712], [142.2711, -35.3548], [142.3046, -35.2403], [142.35, -35.1287], [142.4071, -35.0207], [142.4753, -34.9171], [142.554, -34.8187], [142.6427, -34.7263], [142.7406, -34.6406], [142.8471, -34.562], [142.9613, -34.4913], [143.0823, -34.429], [143.2093, -34.3754], [143.3413, -34.3311], [143.4774, -34.2962], [143.6166, -34.2712], [143.7578, -34.2561], [143.9, -34.251]]]}, "properties": {"id": "mdb-salt", "name": "Murray-Darling irrigation salinity", "land_type": "Salt-affected or hypersaline", "typical_ece_dSm": 8, "radius_km": 150, "note": "Irrigation-driven salinity in the Kerang and Riverland districts", "stage_1": "Cut recharge with deep-rooted perennials upslope and plant saltbush or bluebush on the flats. Stop bare soil.", "stage_2": "Halophyte forage for grazing. Salicornia for sea vegetable, seed oil or biomass. Salt-tolerant barley, quinoa and potato where salinity is moderate.", "stage_3": "Couple seawater or saline-groundwater aquaculture with halophyte beds so fish effluent feeds the crop and the crop cleans the water.", "plants": "Saltbush and bluebush (Atriplex, Maireana); Salicornia and Sarcocornia (samphire); Puccinellia and tall wheatgrass; Salt-tolerant potato, barley, quinoa; Mangroves and Nypa palm", "approximate": "yes, orientation only"}}, {"type": "Feature", "geometry": {"type": "Polygon", "coordinates": [[[121.7, -28.5215], [121.8962, -28.5289], [122.0911, -28.551], [122.2831, -28.5876], [122.4709, -28.6385], [122.6532, -28.7034], [122.8285, -28.7817], [122.9958, -28.8729], [123.1536, -28.9763], [123.3009, -29.0912], [123.4365, -29.2167], [123.5594, -29.352], [123.6686, -29.496], [123.7633, -29.6476], [123.8427, -29.8058], [123.9062, -29.9693], [123.9531, -30.1371], [123.9832, -30.3077], [123.9959, -30.4799], [123.9913, -30.6524], [123.9691, -30.8239], [123.9295, -30.9931], [123.8727, -31.1587], [123.799, -31.3193], [123.709, -31.4739], [123.6032, -31.621], [123.4825, -31.7596], [123.3476, -31.8887], [123.1996, -32.0071], [123.0397, -32.1139], [122.869, -32.2082], [122.689, -32.2894], [122.5009, -32.3567], [122.3064, -32.4097], [122.107, -32.4478], [121.9044, -32.4708], [121.7, -32.4785], [121.4956, -32.4708], [121.293, -32.4478], [121.0936, -32.4097], [120.8991, -32.3567], [120.711, -32.2894], [120.531, -32.2082], [120.3603, -32.1139], [120.2004, -32.0071], [120.0524, -31.8887], [119.9175, -31.7596], [119.7968, -31.621], [119.691, -31.4739], [119.601, -31.3193], [119.5273, -31.1587], [119.4705, -30.9931], [119.4309, -30.8239], [119.4087, -30.6524], [119.4041, -30.4799], [119.4168, -30.3077], [119.4469, -30.1371], [119.4938, -29.9693], [119.5573, -29.8058], [119.6367, -29.6476], [119.7314, -29.496], [119.8406, -29.352], [119.9635, -29.2167], [120.0991, -29.0912], [120.2464, -28.9763], [120.4042, -28.8729], [120.5715, -28.7817], [120.7468, -28.7034], [120.9291, -28.6385], [121.1169, -28.5876], [121.3089, -28.551], [121.5038, -28.5289], [121.7, -28.5215]]]}, "properties": {"id": "kambalda", "name": "Kambalda-Leinster ultramafic belt", "land_type": "Ultramafic (serpentine)", "typical_ece_dSm": 6, "radius_km": 220, "note": "Komatiite nickel belt in the Yilgarn. Arid, saline and ultramafic at once", "stage_1": "Revegetate with native serpentine-tolerant species. Lime or add calcium to correct the calcium to magnesium balance.", "stage_2": "Agromining: grow nickel hyperaccumulators, harvest and burn them, and refine the nickel-rich ash into nickel salts. Break-even is about 15 to 30 kg Ni/ha a year at US$16 to 20/kg.", "stage_3": "Each harvest removes nickel and adds organic matter, so the soil slowly becomes able to carry forage. Food crops stay off until metal uptake is tested.", "plants": "Odontarrhena (Alyssum) species; Phyllanthus rufuschaneyi; Berkheya coddii; Native serpentine grasses and shrubs", "approximate": "yes, orientation only"}}, {"type": "Feature", "geometry": {"type": "Polygon", "coordinates": [[[116.6, 6.6295], [116.6552, 6.6271], [116.71, 6.6199], [116.764, 6.608], [116.8167, 6.5915], [116.8678, 6.5705], [116.9168, 6.5451], [116.9634, 6.5156], [117.0072, 6.4821], [117.048, 6.445], [117.0853, 6.4044], [117.1189, 6.3608], [117.1485, 6.3145], [117.174, 6.2657], [117.1951, 6.215], [117.2116, 6.1626], [117.2235, 6.109], [117.2306, 6.0545], [117.233, 5.9996], [117.2305, 5.9448], [117.2233, 5.8903], [117.2112, 5.8367], [117.1946, 5.7844], [117.1734, 5.7337], [117.1479, 5.685], [117.1182, 5.6387], [117.0845, 5.5951], [117.0472, 5.5547], [117.0065, 5.5176], [116.9627, 5.4842], [116.9162, 5.4547], [116.8672, 5.4294], [116.8163, 5.4084], [116.7637, 5.3919], [116.7098, 5.38], [116.6551, 5.3729], [116.6, 5.3705], [116.5449, 5.3729], [116.4902, 5.38], [116.4363, 5.3919], [116.3837, 5.4084], [116.3328, 5.4294], [116.2838, 5.4547], [116.2373, 5.4842], [116.1935, 5.5176], [116.1528, 5.5547], [116.1155, 5.5951], [116.0818, 5.6387], [116.0521, 5.685], [116.0266, 5.7337], [116.0054, 5.7844], [115.9888, 5.8367], [115.9767, 5.8903], [115.9695, 5.9448], [115.967, 5.9996], [115.9694, 6.0545], [115.9765, 6.109], [115.9884, 6.1626], [116.0049, 6.215], [116.026, 6.2657], [116.0515, 6.3145], [116.0811, 6.3608], [116.1147, 6.4044], [116.152, 6.445], [116.1928, 6.4821], [116.2366, 6.5156], [116.2832, 6.5451], [116.3322, 6.5705], [116.3833, 6.5915], [116.436, 6.608], [116.49, 6.6199], [116.5448, 6.6271], [116.6, 6.6295]]]}, "properties": {"id": "sabah", "name": "Ranau ultramafics, Sabah", "land_type": "Ultramafic (serpentine)", "typical_ece_dSm": 0.5, "radius_km": 70, "note": "Site of the first tropical nickel agromining trials", "stage_1": "Revegetate with native serpentine-tolerant species. Lime or add calcium to correct the calcium to magnesium balance.", "stage_2": "Agromining: grow nickel hyperaccumulators, harvest and burn them, and refine the nickel-rich ash into nickel salts. Break-even is about 15 to 30 kg Ni/ha a year at US$16 to 20/kg.", "stage_3": "Each harvest removes nickel and adds organic matter, so the soil slowly becomes able to carry forage. Food crops stay off until metal uptake is tested.", "plants": "Odontarrhena (Alyssum) species; Phyllanthus rufuschaneyi; Berkheya coddii; Native serpentine grasses and shrubs", "approximate": "yes, orientation only"}}, {"type": "Feature", "geometry": {"type": "Polygon", "coordinates": [[[20.6, 41.9792], [20.7265, 41.975], [20.852, 41.9625], [20.9755, 41.9418], [21.096, 41.913], [21.2125, 41.8765], [21.3242, 41.8324], [21.4301, 41.7811], [21.5294, 41.723], [21.6214, 41.6586], [21.7053, 41.5884], [21.7806, 41.513], [21.8466, 41.4329], [21.9029, 41.3488], [21.9491, 41.2613], [21.9849, 41.1711], [22.01, 41.0788], [22.0242, 40.9853], [22.0276, 40.8912], [22.0202, 40.7972], [22.002, 40.7041], [21.9732, 40.6125], [21.9341, 40.5232], [21.8851, 40.4368], [21.8264, 40.3539], [21.7587, 40.2752], [21.6824, 40.2012], [21.5981, 40.1326], [21.5065, 40.0697], [21.4082, 40.0131], [21.304, 39.9632], [21.1947, 39.9204], [21.081, 39.8849], [20.9638, 39.857], [20.844, 39.8369], [20.7225, 39.8249], [20.6, 39.8208], [20.4775, 39.8249], [20.356, 39.8369], [20.2362, 39.857], [20.119, 39.8849], [20.0053, 39.9204], [19.896, 39.9632], [19.7918, 40.0131], [19.6935, 40.0697], [19.6019, 40.1326], [19.5176, 40.2012], [19.4413, 40.2752], [19.3736, 40.3539], [19.3149, 40.4368], [19.2659, 40.5232], [19.2268, 40.6125], [19.198, 40.7041], [19.1798, 40.7972], [19.1724, 40.8912], [19.1758, 40.9853], [19.19, 41.0788], [19.2151, 41.1711], [19.2509, 41.2613], [19.2971, 41.3488], [19.3534, 41.4329], [19.4194, 41.513], [19.4947, 41.5884], [19.5786, 41.6586], [19.6706, 41.723], [19.7699, 41.7811], [19.8758, 41.8324], [19.9875, 41.8765], [20.104, 41.913], [20.2245, 41.9418], [20.348, 41.9625], [20.4735, 41.975], [20.6, 41.9792]]]}, "properties": {"id": "albania", "name": "Pojsk\u00eb and Pindus ophiolite", "land_type": "Ultramafic (serpentine)", "typical_ece_dSm": 0.6, "radius_km": 120, "note": "Serpentine farmland used for Odontarrhena trials", "stage_1": "Revegetate with native serpentine-tolerant species. Lime or add calcium to correct the calcium to magnesium balance.", "stage_2": "Agromining: grow nickel hyperaccumulators, harvest and burn them, and refine the nickel-rich ash into nickel salts. Break-even is about 15 to 30 kg Ni/ha a year at US$16 to 20/kg.", "stage_3": "Each harvest removes nickel and adds organic matter, so the soil slowly becomes able to carry forage. Food crops stay off until metal uptake is tested.", "plants": "Odontarrhena (Alyssum) species; Phyllanthus rufuschaneyi; Berkheya coddii; Native serpentine grasses and shrubs", "approximate": "yes, orientation only"}}, {"type": "Feature", "geometry": {"type": "Polygon", "coordinates": [[[165.5, -20.0611], [165.6335, -20.0665], [165.766, -20.0827], [165.8966, -20.1097], [166.0242, -20.1471], [166.1479, -20.1947], [166.2668, -20.2521], [166.38, -20.319], [166.4867, -20.3949], [166.5861, -20.4791], [166.6773, -20.571], [166.7598, -20.67], [166.8328, -20.7753], [166.8958, -20.8861], [166.9484, -21.0016], [166.99, -21.121], [167.0204, -21.2433], [167.0393, -21.3675], [167.0465, -21.4929], [167.0419, -21.6183], [167.0256, -21.7429], [166.9976, -21.8657], [166.9582, -21.9858], [166.9075, -22.1022], [166.846, -22.214], [166.7741, -22.3205], [166.6924, -22.4207], [166.6014, -22.5138], [166.5018, -22.5993], [166.3944, -22.6763], [166.2801, -22.7443], [166.1596, -22.8028], [166.034, -22.8513], [165.9042, -22.8894], [165.7712, -22.9168], [165.6362, -22.9334], [165.5, -22.9389], [165.3638, -22.9334], [165.2288, -22.9168], [165.0958, -22.8894], [164.966, -22.8513], [164.8404, -22.8028], [164.7199, -22.7443], [164.6056, -22.6763], [164.4982, -22.5993], [164.3986, -22.5138], [164.3076, -22.4207], [164.2259, -22.3205], [164.154, -22.214], [164.0925, -22.1022], [164.0418, -21.9858], [164.0024, -21.8657], [163.9744, -21.7429], [163.9581, -21.6183], [163.9535, -21.4929], [163.9607, -21.3675], [163.9796, -21.2433], [164.01, -21.121], [164.0516, -21.0016], [164.1042, -20.8861], [164.1672, -20.7753], [164.2402, -20.67], [164.3227, -20.571], [164.4139, -20.4791], [164.5133, -20.3949], [164.62, -20.319], [164.7332, -20.2521], [164.8521, -20.1947], [164.9758, -20.1471], [165.1034, -20.1097], [165.234, -20.0827], [165.3665, -20.0665], [165.5, -20.0611]]]}, "properties": {"id": "newcal", "name": "New Caledonia massif", "land_type": "Ultramafic (serpentine)", "typical_ece_dSm": 0.6, "radius_km": 160, "note": "About a third of the main island is ultramafic, with large nickel mines", "stage_1": "Revegetate with native serpentine-tolerant species. Lime or add calcium to correct the calcium to magnesium balance.", "stage_2": "Agromining: grow nickel hyperaccumulators, harvest and burn them, and refine the nickel-rich ash into nickel salts. Break-even is about 15 to 30 kg Ni/ha a year at US$16 to 20/kg.", "stage_3": "Each harvest removes nickel and adds organic matter, so the soil slowly becomes able to carry forage. Food crops stay off until metal uptake is tested.", "plants": "Odontarrhena (Alyssum) species; Phyllanthus rufuschaneyi; Berkheya coddii; Native serpentine grasses and shrubs", "approximate": "yes, orientation only"}}, {"type": "Feature", "geometry": {"type": "Polygon", "coordinates": [[[122.0, -1.6812], [122.1411, -1.6874], [122.2812, -1.7058], [122.4191, -1.7363], [122.5539, -1.7787], [122.6844, -1.8327], [122.8098, -1.8978], [122.929, -1.9736], [123.0411, -2.0595], [123.1454, -2.1548], [123.241, -2.2588], [123.3271, -2.3707], [123.4032, -2.4897], [123.4686, -2.6149], [123.5229, -2.7452], [123.5656, -2.8799], [123.5964, -3.0177], [123.6151, -3.1576], [123.6215, -3.2987], [123.6155, -3.4398], [123.5973, -3.5798], [123.5669, -3.7177], [123.5246, -3.8524], [123.4706, -3.983], [123.4055, -4.1083], [123.3296, -4.2275], [123.2436, -4.3397], [123.148, -4.4439], [123.0437, -4.5394], [122.9314, -4.6255], [122.812, -4.7015], [122.6864, -4.7668], [122.5556, -4.821], [122.4204, -4.8635], [122.2821, -4.8941], [122.1416, -4.9126], [122.0, -4.9188], [121.8584, -4.9126], [121.7179, -4.8941], [121.5796, -4.8635], [121.4444, -4.821], [121.3136, -4.7668], [121.188, -4.7015], [121.0686, -4.6255], [120.9563, -4.5394], [120.852, -4.4439], [120.7564, -4.3397], [120.6704, -4.2275], [120.5945, -4.1083], [120.5294, -3.983], [120.4754, -3.8524], [120.4331, -3.7177], [120.4027, -3.5798], [120.3845, -3.4398], [120.3785, -3.2987], [120.3849, -3.1576], [120.4036, -3.0177], [120.4344, -2.8799], [120.4771, -2.7452], [120.5314, -2.6149], [120.5968, -2.4897], [120.6729, -2.3707], [120.759, -2.2588], [120.8546, -2.1548], [120.9589, -2.0595], [121.071, -1.9736], [121.1902, -1.8978], [121.3156, -1.8327], [121.4461, -1.7787], [121.5809, -1.7363], [121.7188, -1.7058], [121.8589, -1.6874], [122.0, -1.6812]]]}, "properties": {"id": "sulawesi", "name": "Morowali and Pomalaa, Sulawesi", "land_type": "Mine tailings or metal-contaminated", "typical_ece_dSm": 1, "radius_km": 180, "note": "Laterite nickel mining and HPAL plants from the Ledger's nickel lane", "stage_1": "Phytostabilisation: compost, biosolids or lime with tolerant native grasses and Atriplex to lock metals in place and stop dust.", "stage_2": "Non-food products only: biomass, fibre, or phytomining where metal levels and prices allow (nickel, and rare earths with the fern Dicranopteris).", "stage_3": "Build a living soil cap over decades. Monitor metals in plants and water before any grazing.", "plants": "Atriplex and native tolerant grasses; Dicranopteris linearis fern; Nickel hyperaccumulators", "approximate": "yes, orientation only"}}, {"type": "Feature", "geometry": {"type": "Polygon", "coordinates": [[[127.9, 1.3094], [127.9706, 1.3063], [128.0406, 1.2971], [128.1095, 1.2818], [128.1769, 1.2606], [128.2421, 1.2335], [128.3048, 1.2009], [128.3643, 1.163], [128.4204, 1.12], [128.4724, 1.0723], [128.5201, 1.0202], [128.5631, 0.9642], [128.601, 0.9046], [128.6336, 0.842], [128.6606, 0.7768], [128.6819, 0.7094], [128.6971, 0.6405], [128.7063, 0.5705], [128.7094, 0.5], [128.7063, 0.4294], [128.6971, 0.3594], [128.6818, 0.2905], [128.6606, 0.2231], [128.6336, 0.1579], [128.6009, 0.0953], [128.563, 0.0357], [128.52, -0.0203], [128.4723, -0.0723], [128.4203, -0.12], [128.3642, -0.163], [128.3047, -0.201], [128.2421, -0.2336], [128.1768, -0.2606], [128.1095, -0.2818], [128.0405, -0.2971], [127.9705, -0.3063], [127.9, -0.3094], [127.8295, -0.3063], [127.7595, -0.2971], [127.6905, -0.2818], [127.6232, -0.2606], [127.5579, -0.2336], [127.4953, -0.201], [127.4358, -0.163], [127.3797, -0.12], [127.3277, -0.0723], [127.28, -0.0203], [127.237, 0.0357], [127.1991, 0.0953], [127.1664, 0.1579], [127.1394, 0.2231], [127.1182, 0.2905], [127.1029, 0.3594], [127.0937, 0.4294], [127.0906, 0.5], [127.0937, 0.5705], [127.1029, 0.6405], [127.1181, 0.7094], [127.1394, 0.7768], [127.1664, 0.842], [127.199, 0.9046], [127.2369, 0.9642], [127.2799, 1.0202], [127.3276, 1.0723], [127.3796, 1.12], [127.4357, 1.163], [127.4952, 1.2009], [127.5579, 1.2335], [127.6231, 1.2606], [127.6905, 1.2818], [127.7594, 1.2971], [127.8294, 1.3063], [127.9, 1.3094]]]}, "properties": {"id": "halmahera", "name": "Weda Bay, Halmahera", "land_type": "Ultramafic (serpentine)", "typical_ece_dSm": 0.6, "radius_km": 90, "note": "Ultramafic laterite under active nickel mining", "stage_1": "Revegetate with native serpentine-tolerant species. Lime or add calcium to correct the calcium to magnesium balance.", "stage_2": "Agromining: grow nickel hyperaccumulators, harvest and burn them, and refine the nickel-rich ash into nickel salts. Break-even is about 15 to 30 kg Ni/ha a year at US$16 to 20/kg.", "stage_3": "Each harvest removes nickel and adds organic matter, so the soil slowly becomes able to carry forage. Food crops stay off until metal uptake is tested.", "plants": "Odontarrhena (Alyssum) species; Phyllanthus rufuschaneyi; Berkheya coddii; Native serpentine grasses and shrubs", "approximate": "yes, orientation only"}}, {"type": "Feature", "geometry": {"type": "Polygon", "coordinates": [[[-74.9, 21.2295], [-74.8411, 21.2271], [-74.7827, 21.2199], [-74.7252, 21.208], [-74.6691, 21.1914], [-74.6147, 21.1703], [-74.5625, 21.1449], [-74.5129, 21.1152], [-74.4663, 21.0817], [-74.4231, 21.0445], [-74.3834, 21.0039], [-74.3478, 20.9602], [-74.3164, 20.9138], [-74.2894, 20.865], [-74.2671, 20.8142], [-74.2497, 20.7617], [-74.2372, 20.7081], [-74.2298, 20.6536], [-74.2275, 20.5987], [-74.2303, 20.5438], [-74.2382, 20.4894], [-74.2511, 20.4359], [-74.2689, 20.3835], [-74.2915, 20.3329], [-74.3188, 20.2843], [-74.3504, 20.2381], [-74.3862, 20.1946], [-74.4258, 20.1542], [-74.4691, 20.1172], [-74.5155, 20.0839], [-74.5649, 20.0545], [-74.6168, 20.0292], [-74.6709, 20.0083], [-74.7266, 19.9918], [-74.7837, 19.98], [-74.8416, 19.9729], [-74.9, 19.9705], [-74.9584, 19.9729], [-75.0163, 19.98], [-75.0734, 19.9918], [-75.1291, 20.0083], [-75.1832, 20.0292], [-75.2351, 20.0545], [-75.2845, 20.0839], [-75.3309, 20.1172], [-75.3742, 20.1542], [-75.4138, 20.1946], [-75.4496, 20.2381], [-75.4812, 20.2843], [-75.5085, 20.3329], [-75.5311, 20.3835], [-75.5489, 20.4359], [-75.5618, 20.4894], [-75.5697, 20.5438], [-75.5725, 20.5987], [-75.5702, 20.6536], [-75.5628, 20.7081], [-75.5503, 20.7617], [-75.5329, 20.8142], [-75.5106, 20.865], [-75.4836, 20.9138], [-75.4522, 20.9602], [-75.4166, 21.0039], [-75.3769, 21.0445], [-75.3337, 21.0817], [-75.2871, 21.1152], [-75.2375, 21.1449], [-75.1853, 21.1703], [-75.1309, 21.1914], [-75.0748, 21.208], [-75.0173, 21.2199], [-74.9589, 21.2271], [-74.9, 21.2295]]]}, "properties": {"id": "moa", "name": "Moa, eastern Cuba", "land_type": "Ultramafic (serpentine)", "typical_ece_dSm": 0.6, "radius_km": 70, "note": "Serpentine plateau and laterite nickel", "stage_1": "Revegetate with native serpentine-tolerant species. Lime or add calcium to correct the calcium to magnesium balance.", "stage_2": "Agromining: grow nickel hyperaccumulators, harvest and burn them, and refine the nickel-rich ash into nickel salts. Break-even is about 15 to 30 kg Ni/ha a year at US$16 to 20/kg.", "stage_3": "Each harvest removes nickel and adds organic matter, so the soil slowly becomes able to carry forage. Food crops stay off until metal uptake is tested.", "plants": "Odontarrhena (Alyssum) species; Phyllanthus rufuschaneyi; Berkheya coddii; Native serpentine grasses and shrubs", "approximate": "yes, orientation only"}}, {"type": "Feature", "geometry": {"type": "Polygon", "coordinates": [[[-123.4, 42.7389], [-123.2293, 42.7333], [-123.06, 42.7166], [-122.8934, 42.6888], [-122.7309, 42.6502], [-122.5739, 42.6012], [-122.4236, 42.5421], [-122.2811, 42.4733], [-122.1476, 42.3956], [-122.0242, 42.3093], [-121.9117, 42.2154], [-121.811, 42.1145], [-121.7229, 42.0074], [-121.648, 41.8949], [-121.5867, 41.778], [-121.5396, 41.6575], [-121.5068, 41.5344], [-121.4886, 41.4096], [-121.485, 41.2841], [-121.4959, 41.1589], [-121.5213, 41.0348], [-121.5607, 40.9129], [-121.6139, 40.794], [-121.6803, 40.679], [-121.7595, 40.5688], [-121.8507, 40.4642], [-121.9533, 40.366], [-122.0664, 40.2748], [-122.1892, 40.1913], [-122.3208, 40.1162], [-122.4602, 40.05], [-122.6063, 39.9931], [-122.7581, 39.9461], [-122.9145, 39.9091], [-123.0744, 39.8825], [-123.2366, 39.8664], [-123.4, 39.8611], [-123.5634, 39.8664], [-123.7256, 39.8825], [-123.8855, 39.9091], [-124.0419, 39.9461], [-124.1937, 39.9931], [-124.3398, 40.05], [-124.4792, 40.1162], [-124.6108, 40.1913], [-124.7336, 40.2748], [-124.8467, 40.366], [-124.9493, 40.4642], [-125.0405, 40.5688], [-125.1197, 40.679], [-125.1861, 40.794], [-125.2393, 40.9129], [-125.2787, 41.0348], [-125.3041, 41.1589], [-125.315, 41.2841], [-125.3114, 41.4096], [-125.2932, 41.5344], [-125.2604, 41.6575], [-125.2133, 41.778], [-125.152, 41.8949], [-125.0771, 42.0074], [-124.989, 42.1145], [-124.8883, 42.2154], [-124.7758, 42.3093], [-124.6524, 42.3956], [-124.5189, 42.4733], [-124.3764, 42.5421], [-124.2261, 42.6012], [-124.0691, 42.6502], [-123.9066, 42.6888], [-123.74, 42.7166], [-123.5707, 42.7333], [-123.4, 42.7389]]]}, "properties": {"id": "klamath", "name": "Klamath and Coast Range serpentine, California", "land_type": "Ultramafic (serpentine)", "typical_ece_dSm": 0.5, "radius_km": 160, "note": "Native nickel hyperaccumulators confirmed in California and Oregon", "stage_1": "Revegetate with native serpentine-tolerant species. Lime or add calcium to correct the calcium to magnesium balance.", "stage_2": "Agromining: grow nickel hyperaccumulators, harvest and burn them, and refine the nickel-rich ash into nickel salts. Break-even is about 15 to 30 kg Ni/ha a year at US$16 to 20/kg.", "stage_3": "Each harvest removes nickel and adds organic matter, so the soil slowly becomes able to carry forage. Food crops stay off until metal uptake is tested.", "plants": "Odontarrhena (Alyssum) species; Phyllanthus rufuschaneyi; Berkheya coddii; Native serpentine grasses and shrubs", "approximate": "yes, orientation only"}}, {"type": "Feature", "geometry": {"type": "Polygon", "coordinates": [[[30.6, -16.7014], [30.7636, -16.7081], [30.9261, -16.7284], [31.0861, -16.762], [31.2425, -16.8088], [31.3942, -16.8683], [31.54, -16.9401], [31.6788, -17.0236], [31.8096, -17.1184], [31.9314, -17.2236], [32.0433, -17.3385], [32.1445, -17.4622], [32.2341, -17.5937], [32.3114, -17.7322], [32.3759, -17.8766], [32.427, -18.0258], [32.4644, -18.1786], [32.4876, -18.3339], [32.4966, -18.4906], [32.4911, -18.6474], [32.4712, -18.8031], [32.437, -18.9566], [32.3887, -19.1067], [32.3267, -19.2522], [32.2513, -19.3921], [32.1632, -19.5252], [32.063, -19.6505], [31.9514, -19.767], [31.8293, -19.8738], [31.6975, -19.9701], [31.5573, -20.0552], [31.4095, -20.1284], [31.2553, -20.189], [31.0961, -20.2367], [30.9329, -20.271], [30.7671, -20.2917], [30.6, -20.2986], [30.4329, -20.2917], [30.2671, -20.271], [30.1039, -20.2367], [29.9447, -20.189], [29.7905, -20.1284], [29.6427, -20.0552], [29.5025, -19.9701], [29.3707, -19.8738], [29.2486, -19.767], [29.137, -19.6505], [29.0368, -19.5252], [28.9487, -19.3921], [28.8733, -19.2522], [28.8113, -19.1067], [28.763, -18.9566], [28.7288, -18.8031], [28.7089, -18.6474], [28.7034, -18.4906], [28.7124, -18.3339], [28.7356, -18.1786], [28.773, -18.0258], [28.8241, -17.8766], [28.8886, -17.7322], [28.9659, -17.5937], [29.0555, -17.4622], [29.1567, -17.3385], [29.2686, -17.2236], [29.3904, -17.1184], [29.5212, -17.0236], [29.66, -16.9401], [29.8058, -16.8683], [29.9575, -16.8088], [30.1139, -16.762], [30.2739, -16.7284], [30.4364, -16.7081], [30.6, -16.7014]]]}, "properties": {"id": "greatdyke", "name": "Great Dyke, Zimbabwe", "land_type": "Ultramafic (serpentine)", "typical_ece_dSm": 0.8, "radius_km": 200, "note": "Long ultramafic intrusion with native Berkheya-type flora", "stage_1": "Revegetate with native serpentine-tolerant species. Lime or add calcium to correct the calcium to magnesium balance.", "stage_2": "Agromining: grow nickel hyperaccumulators, harvest and burn them, and refine the nickel-rich ash into nickel salts. Break-even is about 15 to 30 kg Ni/ha a year at US$16 to 20/kg.", "stage_3": "Each harvest removes nickel and adds organic matter, so the soil slowly becomes able to carry forage. Food crops stay off until metal uptake is tested.", "plants": "Odontarrhena (Alyssum) species; Phyllanthus rufuschaneyi; Berkheya coddii; Native serpentine grasses and shrubs", "approximate": "yes, orientation only"}}, {"type": "Feature", "geometry": {"type": "Polygon", "coordinates": [[[57.5, 24.6389], [57.638, 24.6334], [57.7748, 24.6168], [57.9095, 24.5894], [58.041, 24.5512], [58.1682, 24.5027], [58.2902, 24.4441], [58.406, 24.3761], [58.5148, 24.299], [58.6156, 24.2135], [58.7077, 24.1203], [58.7904, 24.02], [58.8631, 23.9136], [58.9253, 23.8017], [58.9765, 23.6852], [59.0164, 23.5651], [59.0446, 23.4423], [59.061, 23.3177], [59.0654, 23.1923], [59.058, 23.0669], [59.0388, 22.9427], [59.0079, 22.8204], [58.9657, 22.7011], [58.9124, 22.5856], [58.8485, 22.4748], [58.7746, 22.3696], [58.6911, 22.2706], [58.5987, 22.1787], [58.4982, 22.0946], [58.3902, 22.0188], [58.2756, 21.952], [58.1553, 21.8946], [58.0302, 21.847], [57.9011, 21.8096], [57.7691, 21.7827], [57.635, 21.7665], [57.5, 21.7611], [57.365, 21.7665], [57.2309, 21.7827], [57.0989, 21.8096], [56.9698, 21.847], [56.8447, 21.8946], [56.7244, 21.952], [56.6098, 22.0188], [56.5018, 22.0946], [56.4013, 22.1787], [56.3089, 22.2706], [56.2254, 22.3696], [56.1515, 22.4748], [56.0876, 22.5856], [56.0343, 22.7011], [55.9921, 22.8204], [55.9612, 22.9427], [55.942, 23.0669], [55.9346, 23.1923], [55.939, 23.3177], [55.9554, 23.4423], [55.9836, 23.5651], [56.0235, 23.6852], [56.0747, 23.8017], [56.1369, 23.9136], [56.2096, 24.02], [56.2923, 24.1203], [56.3844, 24.2135], [56.4852, 24.299], [56.594, 24.3761], [56.7098, 24.4441], [56.8318, 24.5027], [56.959, 24.5512], [57.0905, 24.5894], [57.2252, 24.6168], [57.362, 24.6334], [57.5, 24.6389]]]}, "properties": {"id": "oman", "name": "Semail ophiolite, Oman", "land_type": "Ultramafic (serpentine)", "typical_ece_dSm": 4, "radius_km": 160, "note": "Hyperarid ultramafic mountains", "stage_1": "Revegetate with native serpentine-tolerant species. Lime or add calcium to correct the calcium to magnesium balance.", "stage_2": "Agromining: grow nickel hyperaccumulators, harvest and burn them, and refine the nickel-rich ash into nickel salts. Break-even is about 15 to 30 kg Ni/ha a year at US$16 to 20/kg.", "stage_3": "Each harvest removes nickel and adds organic matter, so the soil slowly becomes able to carry forage. Food crops stay off until metal uptake is tested.", "plants": "Odontarrhena (Alyssum) species; Phyllanthus rufuschaneyi; Berkheya coddii; Native serpentine grasses and shrubs", "approximate": "yes, orientation only"}}, {"type": "Feature", "geometry": {"type": "Polygon", "coordinates": [[[79.5, 29.698], [79.7706, 29.6874], [80.0389, 29.6559], [80.3029, 29.6037], [80.5602, 29.5313], [80.8089, 29.4391], [81.0469, 29.328], [81.2724, 29.1989], [81.4835, 29.0528], [81.6787, 28.8909], [81.8564, 28.7145], [82.0153, 28.5251], [82.1542, 28.324], [82.2723, 28.113], [82.3687, 27.8936], [82.4427, 27.6677], [82.494, 27.4368], [82.5222, 27.2029], [82.5274, 26.9676], [82.5096, 26.7329], [82.4691, 26.5004], [82.4064, 26.272], [82.322, 26.0492], [82.2167, 25.8338], [82.0914, 25.6274], [81.947, 25.4315], [81.7848, 25.2474], [81.606, 25.0767], [81.4119, 24.9204], [81.204, 24.7798], [80.9839, 24.6558], [80.7532, 24.5493], [80.5134, 24.4611], [80.2665, 24.3919], [80.014, 24.3421], [79.7579, 24.3121], [79.5, 24.302], [79.2421, 24.3121], [78.986, 24.3421], [78.7335, 24.3919], [78.4866, 24.4611], [78.2468, 24.5493], [78.0161, 24.6558], [77.796, 24.7798], [77.5881, 24.9204], [77.394, 25.0767], [77.2152, 25.2474], [77.053, 25.4315], [76.9086, 25.6274], [76.7833, 25.8338], [76.678, 26.0492], [76.5936, 26.272], [76.5309, 26.5004], [76.4904, 26.7329], [76.4726, 26.9676], [76.4778, 27.2029], [76.506, 27.4368], [76.5573, 27.6677], [76.6313, 27.8936], [76.7277, 28.113], [76.8458, 28.324], [76.9847, 28.5251], [77.1436, 28.7145], [77.3213, 28.8909], [77.5165, 29.0528], [77.7276, 29.1989], [77.9531, 29.328], [78.1911, 29.4391], [78.4398, 29.5313], [78.6971, 29.6037], [78.9611, 29.6559], [79.2294, 29.6874], [79.5, 29.698]]]}, "properties": {"id": "igp-sodic", "name": "Indo-Gangetic sodic belt", "land_type": "Sodic or alkaline", "typical_ece_dSm": 4, "radius_km": 300, "note": "2.07 Mha reclaimed with gypsum, more still barren", "stage_1": "Apply gypsum (or press mud, sulphur, acid by-products) to replace sodium with calcium, then leach with good water.", "stage_2": "Start with rice or tolerant forage that copes with standing water, then rotate into wheat or barley once the soil opens up.", "stage_3": "Green manure (Sesbania), crop residues and deep-rooted trees such as Prosopis or eucalyptus on field edges keep the structure open.", "plants": "Sodicity-tolerant rice (CSR lines); Sesbania; Barley and wheat; Kallar grass (Leptochloa)", "approximate": "yes, orientation only"}}, {"type": "Feature", "geometry": {"type": "Polygon", "coordinates": [[[72.6, 33.1785], [72.806, 33.1708], [73.0103, 33.1478], [73.2112, 33.1097], [73.4072, 33.0567], [73.5967, 32.9893], [73.7782, 32.9081], [73.9501, 32.8137], [74.1113, 32.7068], [74.2603, 32.5884], [74.3962, 32.4593], [74.5178, 32.3206], [74.6243, 32.1734], [74.7149, 32.0189], [74.789, 31.8582], [74.8461, 31.6926], [74.8859, 31.5234], [74.9081, 31.3518], [74.9127, 31.1793], [74.8997, 31.0071], [74.8694, 30.8365], [74.822, 30.6688], [74.758, 30.5053], [74.6779, 30.3471], [74.5824, 30.1955], [74.4724, 30.0516], [74.3485, 29.9164], [74.212, 29.7909], [74.0636, 29.6761], [73.9047, 29.5727], [73.7363, 29.4816], [73.5596, 29.4033], [73.3761, 29.3385], [73.187, 29.2876], [72.9937, 29.251], [72.7976, 29.2289], [72.6, 29.2215], [72.4024, 29.2289], [72.2063, 29.251], [72.013, 29.2876], [71.8239, 29.3385], [71.6404, 29.4033], [71.4637, 29.4816], [71.2953, 29.5727], [71.1364, 29.6761], [70.988, 29.7909], [70.8515, 29.9164], [70.7276, 30.0516], [70.6176, 30.1955], [70.5221, 30.3471], [70.442, 30.5053], [70.378, 30.6688], [70.3306, 30.8365], [70.3003, 31.0071], [70.2873, 31.1793], [70.2919, 31.3518], [70.3141, 31.5234], [70.3539, 31.6926], [70.411, 31.8582], [70.4851, 32.0189], [70.5757, 32.1734], [70.6822, 32.3206], [70.8038, 32.4593], [70.9397, 32.5884], [71.0887, 32.7068], [71.2499, 32.8137], [71.4218, 32.9081], [71.6033, 32.9893], [71.7928, 33.0567], [71.9888, 33.1097], [72.1897, 33.1478], [72.394, 33.1708], [72.6, 33.1785]]]}, "properties": {"id": "punjab-salt", "name": "Salt-affected Punjab, Pakistan", "land_type": "Salt-affected or hypersaline", "typical_ece_dSm": 8, "radius_km": 220, "note": "Waterlogging and salinity in the canal command areas", "stage_1": "Cut recharge with deep-rooted perennials upslope and plant saltbush or bluebush on the flats. Stop bare soil.", "stage_2": "Halophyte forage for grazing. Salicornia for sea vegetable, seed oil or biomass. Salt-tolerant barley, quinoa and potato where salinity is moderate.", "stage_3": "Couple seawater or saline-groundwater aquaculture with halophyte beds so fish effluent feeds the crop and the crop cleans the water.", "plants": "Saltbush and bluebush (Atriplex, Maireana); Salicornia and Sarcocornia (samphire); Puccinellia and tall wheatgrass; Salt-tolerant potato, barley, quinoa; Mangroves and Nypa palm", "approximate": "yes, orientation only"}}, {"type": "Feature", "geometry": {"type": "Polygon", "coordinates": [[[89.5, 23.3792], [89.6025, 23.375], [89.7041, 23.3627], [89.8042, 23.3421], [89.9019, 23.3136], [89.9965, 23.2773], [90.0872, 23.2335], [90.1733, 23.1826], [90.2543, 23.125], [90.3294, 23.061], [90.398, 22.9912], [90.4598, 22.9162], [90.5141, 22.8364], [90.5606, 22.7526], [90.599, 22.6654], [90.6289, 22.5754], [90.6502, 22.4833], [90.6627, 22.3899], [90.6664, 22.2958], [90.6612, 22.2018], [90.6471, 22.1086], [90.6244, 22.0168], [90.5932, 21.9272], [90.5537, 21.8405], [90.5063, 21.7573], [90.4513, 21.6782], [90.3892, 21.6039], [90.3203, 21.5348], [90.2454, 21.4716], [90.1649, 21.4146], [90.0794, 21.3644], [89.9896, 21.3212], [89.8961, 21.2854], [89.7997, 21.2573], [89.701, 21.2371], [89.6009, 21.2249], [89.5, 21.2208], [89.3991, 21.2249], [89.299, 21.2371], [89.2003, 21.2573], [89.1039, 21.2854], [89.0104, 21.3212], [88.9206, 21.3644], [88.8351, 21.4146], [88.7546, 21.4716], [88.6797, 21.5348], [88.6108, 21.6039], [88.5487, 21.6782], [88.4937, 21.7573], [88.4463, 21.8405], [88.4068, 21.9272], [88.3756, 22.0168], [88.3529, 22.1086], [88.3388, 22.2018], [88.3336, 22.2958], [88.3373, 22.3899], [88.3498, 22.4833], [88.3711, 22.5754], [88.401, 22.6654], [88.4394, 22.7526], [88.4859, 22.8364], [88.5402, 22.9162], [88.602, 22.9912], [88.6706, 23.061], [88.7457, 23.125], [88.8267, 23.1826], [88.9128, 23.2335], [89.0035, 23.2773], [89.0981, 23.3136], [89.1958, 23.3421], [89.2959, 23.3627], [89.3975, 23.375], [89.5, 23.3792]]]}, "properties": {"id": "bd-coast", "name": "Coastal Bangladesh", "land_type": "Salt-affected or hypersaline", "typical_ece_dSm": 9, "radius_km": 120, "note": "Seawater intrusion and cyclone surges in the dry season", "stage_1": "Cut recharge with deep-rooted perennials upslope and plant saltbush or bluebush on the flats. Stop bare soil.", "stage_2": "Halophyte forage for grazing. Salicornia for sea vegetable, seed oil or biomass. Salt-tolerant barley, quinoa and potato where salinity is moderate.", "stage_3": "Couple seawater or saline-groundwater aquaculture with halophyte beds so fish effluent feeds the crop and the crop cleans the water.", "plants": "Saltbush and bluebush (Atriplex, Maireana); Salicornia and Sarcocornia (samphire); Puccinellia and tall wheatgrass; Salt-tolerant potato, barley, quinoa; Mangroves and Nypa palm", "approximate": "yes, orientation only"}}, {"type": "Feature", "geometry": {"type": "Polygon", "coordinates": [[[105.5, 11.6792], [105.596, 11.6751], [105.6913, 11.6627], [105.7852, 11.6423], [105.8768, 11.6139], [105.9655, 11.5777], [106.0507, 11.5341], [106.1316, 11.4834], [106.2077, 11.4259], [106.2783, 11.3621], [106.343, 11.2925], [106.4012, 11.2177], [106.4525, 11.1381], [106.4966, 11.0545], [106.533, 10.9674], [106.5615, 10.8775], [106.5819, 10.7855], [106.5941, 10.6922], [106.5979, 10.5981], [106.5934, 10.5041], [106.5806, 10.4108], [106.5595, 10.3189], [106.5305, 10.2292], [106.4936, 10.1424], [106.4492, 10.059], [106.3976, 9.9798], [106.3392, 9.9052], [106.2745, 9.836], [106.2039, 9.7725], [106.128, 9.7154], [106.0473, 9.6649], [105.9626, 9.6216], [105.8743, 9.5857], [105.7832, 9.5575], [105.69, 9.5372], [105.5954, 9.5249], [105.5, 9.5208], [105.4046, 9.5249], [105.31, 9.5372], [105.2168, 9.5575], [105.1257, 9.5857], [105.0374, 9.6216], [104.9527, 9.6649], [104.872, 9.7154], [104.7961, 9.7725], [104.7255, 9.836], [104.6608, 9.9052], [104.6024, 9.9798], [104.5508, 10.059], [104.5064, 10.1424], [104.4695, 10.2292], [104.4405, 10.3189], [104.4194, 10.4108], [104.4066, 10.5041], [104.4021, 10.5981], [104.4059, 10.6922], [104.4181, 10.7855], [104.4385, 10.8775], [104.467, 10.9674], [104.5034, 11.0545], [104.5475, 11.1381], [104.5988, 11.2177], [104.657, 11.2925], [104.7217, 11.3621], [104.7923, 11.4259], [104.8684, 11.4834], [104.9493, 11.5341], [105.0345, 11.5777], [105.1232, 11.6139], [105.2148, 11.6423], [105.3087, 11.6627], [105.404, 11.6751], [105.5, 11.6792]]]}, "properties": {"id": "mekong-acid", "name": "Plain of Reeds and Long Xuyen, Mekong", "land_type": "Acid sulfate (coastal or drained wetland)", "typical_ece_dSm": 1.5, "radius_km": 120, "note": "Acid sulfate soils opened to rice with canals and shallow drainage", "stage_1": "Keep pyritic layers wet. Use shallow drains only, and lime where acid is flushed out.", "stage_2": "Raised beds or shallow-tillage rice with canals that flush acidity, as used to open the Plain of Reeds and Long Xuyen Quadrangle to rice. Melaleuca forest where acid is severe.", "stage_3": "Rice-fish or rice-shrimp rotations where water allows, with mangrove buffers on coasts.", "plants": "Acid-tolerant rice varieties; Melaleuca (paperbark); Mangroves", "approximate": "yes, orientation only"}}, {"type": "Feature", "geometry": {"type": "Polygon", "coordinates": [[[46.3, 33.2986], [46.4875, 33.2917], [46.6735, 33.2708], [46.8565, 33.2362], [47.035, 33.1881], [47.2076, 33.1269], [47.3729, 33.0532], [47.5296, 32.9675], [47.6764, 32.8705], [47.8124, 32.763], [47.9363, 32.6458], [48.0473, 32.5198], [48.1446, 32.3861], [48.2274, 32.2457], [48.2953, 32.0997], [48.3476, 31.9492], [48.3842, 31.7954], [48.4047, 31.6395], [48.4092, 31.4827], [48.3977, 31.3261], [48.3703, 31.171], [48.3273, 31.0185], [48.2692, 30.8697], [48.1964, 30.7259], [48.1095, 30.5879], [48.0092, 30.457], [47.8963, 30.3339], [47.7718, 30.2197], [47.6365, 30.1152], [47.4914, 30.0211], [47.3377, 29.9381], [47.1765, 29.8669], [47.0089, 29.8079], [46.8362, 29.7615], [46.6596, 29.7282], [46.4805, 29.7081], [46.3, 29.7014], [46.1195, 29.7081], [45.9404, 29.7282], [45.7638, 29.7615], [45.5911, 29.8079], [45.4235, 29.8669], [45.2623, 29.9381], [45.1086, 30.0211], [44.9635, 30.1152], [44.8282, 30.2197], [44.7037, 30.3339], [44.5908, 30.457], [44.4905, 30.5879], [44.4036, 30.7259], [44.3308, 30.8697], [44.2727, 31.0185], [44.2297, 31.171], [44.2023, 31.3261], [44.1908, 31.4827], [44.1953, 31.6395], [44.2158, 31.7954], [44.2524, 31.9492], [44.3047, 32.0997], [44.3726, 32.2457], [44.4554, 32.3861], [44.5527, 32.5198], [44.6637, 32.6458], [44.7876, 32.763], [44.9236, 32.8705], [45.0704, 32.9675], [45.2271, 33.0532], [45.3924, 33.1269], [45.565, 33.1881], [45.7435, 33.2362], [45.9265, 33.2708], [46.1125, 33.2917], [46.3, 33.2986]]]}, "properties": {"id": "iraq-salt", "name": "Lower Mesopotamian plain", "land_type": "Salt-affected or hypersaline", "typical_ece_dSm": 12, "radius_km": 200, "note": "Ancient irrigation salinity. Large share of farmland affected", "stage_1": "Cut recharge with deep-rooted perennials upslope and plant saltbush or bluebush on the flats. Stop bare soil.", "stage_2": "Halophyte forage for grazing. Salicornia for sea vegetable, seed oil or biomass. Salt-tolerant barley, quinoa and potato where salinity is moderate.", "stage_3": "Couple seawater or saline-groundwater aquaculture with halophyte beds so fish effluent feeds the crop and the crop cleans the water.", "plants": "Saltbush and bluebush (Atriplex, Maireana); Salicornia and Sarcocornia (samphire); Puccinellia and tall wheatgrass; Salt-tolerant potato, barley, quinoa; Mangroves and Nypa palm", "approximate": "yes, orientation only"}}, {"type": "Feature", "geometry": {"type": "Polygon", "coordinates": [[[59.5, 45.2483], [59.7782, 45.2394], [60.0541, 45.2128], [60.3252, 45.1688], [60.5893, 45.1077], [60.8442, 45.03], [61.0878, 44.9363], [61.3181, 44.8276], [61.5332, 44.7046], [61.7316, 44.5685], [61.9115, 44.4202], [62.0718, 44.2612], [62.2113, 44.0925], [62.3291, 43.9157], [62.4244, 43.732], [62.4966, 43.543], [62.5455, 43.3502], [62.5709, 43.155], [62.5728, 42.9589], [62.5514, 42.7634], [62.5071, 42.5701], [62.4405, 42.3802], [62.3522, 42.1953], [62.243, 42.0168], [62.114, 41.8458], [61.9662, 41.6836], [61.8007, 41.5314], [61.619, 41.3904], [61.4224, 41.2613], [61.2123, 41.1453], [60.9903, 41.0431], [60.7579, 40.9553], [60.5169, 40.8827], [60.2688, 40.8257], [60.0155, 40.7847], [59.7586, 40.76], [59.5, 40.7517], [59.2414, 40.76], [58.9845, 40.7847], [58.7312, 40.8257], [58.4831, 40.8827], [58.2421, 40.9553], [58.0097, 41.0431], [57.7877, 41.1453], [57.5776, 41.2613], [57.381, 41.3904], [57.1993, 41.5314], [57.0338, 41.6836], [56.886, 41.8458], [56.757, 42.0168], [56.6478, 42.1953], [56.5595, 42.3802], [56.4929, 42.5701], [56.4486, 42.7634], [56.4272, 42.9589], [56.4291, 43.155], [56.4545, 43.3502], [56.5034, 43.543], [56.5756, 43.732], [56.6709, 43.9157], [56.7887, 44.0925], [56.9282, 44.2612], [57.0885, 44.4202], [57.2684, 44.5685], [57.4668, 44.7046], [57.6819, 44.8276], [57.9122, 44.9363], [58.1558, 45.03], [58.4107, 45.1077], [58.6748, 45.1688], [58.9459, 45.2128], [59.2218, 45.2394], [59.5, 45.2483]]]}, "properties": {"id": "aral", "name": "Karakalpakstan and the Aral basin", "land_type": "Salt-affected or hypersaline", "typical_ece_dSm": 10, "radius_km": 250, "note": "Salt from the dried Aral Sea bed and over-irrigation", "stage_1": "Cut recharge with deep-rooted perennials upslope and plant saltbush or bluebush on the flats. Stop bare soil.", "stage_2": "Halophyte forage for grazing. Salicornia for sea vegetable, seed oil or biomass. Salt-tolerant barley, quinoa and potato where salinity is moderate.", "stage_3": "Couple seawater or saline-groundwater aquaculture with halophyte beds so fish effluent feeds the crop and the crop cleans the water.", "plants": "Saltbush and bluebush (Atriplex, Maireana); Salicornia and Sarcocornia (samphire); Puccinellia and tall wheatgrass; Salt-tolerant potato, barley, quinoa; Mangroves and Nypa palm", "approximate": "yes, orientation only"}}, {"type": "Feature", "geometry": {"type": "Polygon", "coordinates": [[[54.5, 25.6389], [54.6391, 25.6334], [54.7771, 25.6168], [54.9129, 25.5893], [55.0454, 25.5512], [55.1737, 25.5026], [55.2967, 25.4441], [55.4134, 25.376], [55.523, 25.2988], [55.6246, 25.2133], [55.7174, 25.1201], [55.8007, 25.0198], [55.874, 24.9133], [55.9366, 24.8014], [55.9881, 24.6849], [56.0282, 24.5648], [56.0566, 24.4419], [56.073, 24.3173], [56.0775, 24.1919], [56.0699, 24.0666], [56.0505, 23.9423], [56.0193, 23.8201], [55.9767, 23.7008], [55.923, 23.5853], [55.8586, 23.4745], [55.784, 23.3693], [55.6998, 23.2704], [55.6068, 23.1786], [55.5054, 23.0944], [55.3967, 23.0187], [55.2813, 22.9519], [55.1601, 22.8945], [55.034, 22.8469], [54.904, 22.8096], [54.771, 22.7827], [54.636, 22.7665], [54.5, 22.7611], [54.364, 22.7665], [54.229, 22.7827], [54.096, 22.8096], [53.966, 22.8469], [53.8399, 22.8945], [53.7187, 22.9519], [53.6033, 23.0187], [53.4946, 23.0944], [53.3932, 23.1786], [53.3002, 23.2704], [53.216, 23.3693], [53.1414, 23.4745], [53.077, 23.5853], [53.0233, 23.7008], [52.9807, 23.8201], [52.9495, 23.9423], [52.9301, 24.0666], [52.9225, 24.1919], [52.927, 24.3173], [52.9434, 24.4419], [52.9718, 24.5648], [53.0119, 24.6849], [53.0634, 24.8014], [53.126, 24.9133], [53.1993, 25.0198], [53.2826, 25.1201], [53.3754, 25.2133], [53.477, 25.2988], [53.5866, 25.376], [53.7033, 25.4441], [53.8263, 25.5026], [53.9546, 25.5512], [54.0871, 25.5893], [54.2229, 25.6168], [54.3609, 25.6334], [54.5, 25.6389]]]}, "properties": {"id": "uae-coast", "name": "Gulf coastal sabkha", "land_type": "Salt-affected or hypersaline", "typical_ece_dSm": 40, "radius_km": 160, "note": "Salt flats with seawater on hand. Halophyte and aquaculture country", "stage_1": "Cut recharge with deep-rooted perennials upslope and plant saltbush or bluebush on the flats. Stop bare soil.", "stage_2": "Halophyte forage for grazing. Salicornia for sea vegetable, seed oil or biomass. Salt-tolerant barley, quinoa and potato where salinity is moderate.", "stage_3": "Couple seawater or saline-groundwater aquaculture with halophyte beds so fish effluent feeds the crop and the crop cleans the water.", "plants": "Saltbush and bluebush (Atriplex, Maireana); Salicornia and Sarcocornia (samphire); Puccinellia and tall wheatgrass; Salt-tolerant potato, barley, quinoa; Mangroves and Nypa palm", "approximate": "yes, orientation only"}}, {"type": "Feature", "geometry": {"type": "Polygon", "coordinates": [[[-59.0, -34.0215], [-58.792, -34.0288], [-58.5854, -34.0508], [-58.3818, -34.0873], [-58.1826, -34.138], [-57.9891, -34.2026], [-57.8029, -34.2806], [-57.6253, -34.3714], [-57.4574, -34.4744], [-57.3007, -34.5889], [-57.1562, -34.7141], [-57.0251, -34.8489], [-56.9084, -34.9925], [-56.807, -35.1438], [-56.7218, -35.3017], [-56.6534, -35.465], [-56.6025, -35.6325], [-56.5695, -35.803], [-56.5549, -35.9752], [-56.5589, -36.1477], [-56.5815, -36.3193], [-56.6227, -36.4887], [-56.6824, -36.6545], [-56.7601, -36.8154], [-56.8553, -36.9703], [-56.9675, -37.1178], [-57.0958, -37.2568], [-57.2393, -37.3862], [-57.397, -37.505], [-57.5676, -37.6123], [-57.7497, -37.707], [-57.9421, -37.7885], [-58.1431, -37.8562], [-58.3511, -37.9094], [-58.5644, -37.9477], [-58.7813, -37.9708], [-59.0, -37.9785], [-59.2187, -37.9708], [-59.4356, -37.9477], [-59.6489, -37.9094], [-59.8569, -37.8562], [-60.0579, -37.7885], [-60.2503, -37.707], [-60.4324, -37.6123], [-60.603, -37.505], [-60.7607, -37.3862], [-60.9042, -37.2568], [-61.0325, -37.1178], [-61.1447, -36.9703], [-61.2399, -36.8154], [-61.3176, -36.6545], [-61.3773, -36.4887], [-61.4185, -36.3193], [-61.4411, -36.1477], [-61.4451, -35.9752], [-61.4305, -35.803], [-61.3975, -35.6325], [-61.3466, -35.465], [-61.2782, -35.3017], [-61.193, -35.1438], [-61.0916, -34.9925], [-60.9749, -34.8489], [-60.8438, -34.7141], [-60.6993, -34.5889], [-60.5426, -34.4744], [-60.3747, -34.3714], [-60.1971, -34.2806], [-60.0109, -34.2026], [-59.8174, -34.138], [-59.6182, -34.0873], [-59.4146, -34.0508], [-59.208, -34.0288], [-59.0, -34.0215]]]}, "properties": {"id": "salado", "name": "Salado basin, Argentina", "land_type": "Sodic or alkaline", "typical_ece_dSm": 6, "radius_km": 220, "note": "Flooding pampas with saline-sodic soils", "stage_1": "Apply gypsum (or press mud, sulphur, acid by-products) to replace sodium with calcium, then leach with good water.", "stage_2": "Start with rice or tolerant forage that copes with standing water, then rotate into wheat or barley once the soil opens up.", "stage_3": "Green manure (Sesbania), crop residues and deep-rooted trees such as Prosopis or eucalyptus on field edges keep the structure open.", "plants": "Sodicity-tolerant rice (CSR lines); Sesbania; Barley and wheat; Kallar grass (Leptochloa)", "approximate": "yes, orientation only"}}, {"type": "Feature", "geometry": {"type": "Polygon", "coordinates": [[[7.5, 15.5785], [7.679, 15.5709], [7.8565, 15.5482], [8.0313, 15.5105], [8.202, 15.4582], [8.3671, 15.3916], [8.5255, 15.3113], [8.6759, 15.2179], [8.8172, 15.1121], [8.9482, 14.9947], [9.068, 14.8667], [9.1757, 14.7291], [9.2704, 14.5829], [9.3515, 14.4292], [9.4184, 14.2693], [9.4705, 14.1043], [9.5075, 13.9355], [9.5293, 13.7642], [9.5355, 13.5917], [9.5263, 13.4194], [9.5017, 13.2485], [9.462, 13.0803], [9.4074, 12.9162], [9.3385, 12.7572], [9.2557, 12.6047], [9.1597, 12.4598], [9.0513, 12.3236], [8.9312, 12.197], [8.8004, 12.0811], [8.6599, 11.9767], [8.5108, 11.8846], [8.3541, 11.8055], [8.191, 11.7399], [8.0228, 11.6884], [7.8507, 11.6513], [7.676, 11.629], [7.5, 11.6215], [7.324, 11.629], [7.1493, 11.6513], [6.9772, 11.6884], [6.809, 11.7399], [6.6459, 11.8055], [6.4892, 11.8846], [6.3401, 11.9767], [6.1996, 12.0811], [6.0688, 12.197], [5.9487, 12.3236], [5.8403, 12.4598], [5.7443, 12.6047], [5.6615, 12.7572], [5.5926, 12.9162], [5.538, 13.0803], [5.4983, 13.2485], [5.4737, 13.4194], [5.4645, 13.5917], [5.4707, 13.7642], [5.4925, 13.9355], [5.5295, 14.1043], [5.5816, 14.2693], [5.6485, 14.4292], [5.7296, 14.5829], [5.8243, 14.7291], [5.932, 14.8667], [6.0518, 14.9947], [6.1828, 15.1121], [6.3241, 15.2179], [6.4745, 15.3113], [6.6329, 15.3916], [6.798, 15.4582], [6.9687, 15.5105], [7.1435, 15.5482], [7.321, 15.5709], [7.5, 15.5785]]]}, "properties": {"id": "niger-sahel", "name": "Maradi and Zinder, Niger", "land_type": "Eroded slopes or degraded drylands", "typical_ece_dSm": 0.5, "radius_km": 220, "note": "Regreened by farmer-managed natural regeneration", "stage_1": "Close hillsides to grazing, build stone bunds, terraces and check dams.", "stage_2": "Za\u00ef pits and half-moons on crusted fields, farmer-managed regeneration of trees in cropland.", "stage_3": "Recharged aquifers support shallow-well irrigation, and trees supply fodder, fuel and nitrogen.", "plants": "Faidherbia and native regrowth; Fodder grasses on bunds; Sorghum and millet in za\u00ef pits", "approximate": "yes, orientation only"}}, {"type": "Feature", "geometry": {"type": "Polygon", "coordinates": [[[-14.5, 17.1986], [-14.3359, 17.1917], [-14.1731, 17.1711], [-14.0129, 17.1368], [-13.8565, 17.0892], [-13.7051, 17.0287], [-13.5599, 16.9556], [-13.4221, 16.8707], [-13.2926, 16.7745], [-13.1725, 16.6678], [-13.0627, 16.5514], [-12.964, 16.4263], [-12.8772, 16.2934], [-12.8029, 16.1536], [-12.7417, 16.0082], [-12.6939, 15.8582], [-12.66, 15.7047], [-12.6401, 15.549], [-12.6344, 15.3922], [-12.6429, 15.2356], [-12.6655, 15.0802], [-12.702, 14.9273], [-12.752, 14.7781], [-12.8153, 14.6336], [-12.8912, 14.495], [-12.9792, 14.3633], [-13.0786, 14.2394], [-13.1886, 14.1244], [-13.3085, 14.0191], [-13.4372, 13.9242], [-13.5739, 13.8405], [-13.7175, 13.7685], [-13.8669, 13.709], [-14.021, 13.6621], [-14.1787, 13.6285], [-14.3387, 13.6081], [-14.5, 13.6014], [-14.6613, 13.6081], [-14.8213, 13.6285], [-14.979, 13.6621], [-15.1331, 13.709], [-15.2825, 13.7685], [-15.4261, 13.8405], [-15.5628, 13.9242], [-15.6915, 14.0191], [-15.8114, 14.1244], [-15.9214, 14.2394], [-16.0208, 14.3633], [-16.1088, 14.495], [-16.1847, 14.6336], [-16.248, 14.7781], [-16.298, 14.9273], [-16.3345, 15.0802], [-16.3571, 15.2356], [-16.3656, 15.3922], [-16.3599, 15.549], [-16.34, 15.7047], [-16.3061, 15.8582], [-16.2583, 16.0082], [-16.1971, 16.1536], [-16.1228, 16.2934], [-16.036, 16.4263], [-15.9373, 16.5514], [-15.8275, 16.6678], [-15.7074, 16.7745], [-15.5779, 16.8707], [-15.4401, 16.9556], [-15.2949, 17.0287], [-15.1435, 17.0892], [-14.9871, 17.1368], [-14.8269, 17.1711], [-14.6641, 17.1917], [-14.5, 17.1986]]]}, "properties": {"id": "senegal-ggw", "name": "Ferlo, Senegal", "land_type": "Eroded slopes or degraded drylands", "typical_ece_dSm": 1, "radius_km": 200, "note": "Great Green Wall planting zone", "stage_1": "Close hillsides to grazing, build stone bunds, terraces and check dams.", "stage_2": "Za\u00ef pits and half-moons on crusted fields, farmer-managed regeneration of trees in cropland.", "stage_3": "Recharged aquifers support shallow-well irrigation, and trees supply fodder, fuel and nitrogen.", "plants": "Faidherbia and native regrowth; Fodder grasses on bunds; Sorghum and millet in za\u00ef pits", "approximate": "yes, orientation only"}}, {"type": "Feature", "geometry": {"type": "Polygon", "coordinates": [[[39.6, 14.8792], [39.6973, 14.8751], [39.7939, 14.8627], [39.8889, 14.8422], [39.9818, 14.8138], [40.0717, 14.7776], [40.1579, 14.734], [40.2399, 14.6832], [40.3169, 14.6256], [40.3884, 14.5618], [40.4539, 14.4922], [40.5127, 14.4173], [40.5646, 14.3377], [40.6091, 14.254], [40.6459, 14.1669], [40.6747, 14.077], [40.6953, 13.985], [40.7075, 13.8916], [40.7113, 13.7975], [40.7066, 13.7035], [40.6935, 13.6102], [40.6721, 13.5184], [40.6426, 13.4287], [40.6052, 13.3419], [40.5602, 13.2586], [40.5079, 13.1794], [40.4488, 13.1049], [40.3833, 13.0357], [40.3118, 12.9723], [40.235, 12.9152], [40.1535, 12.8648], [40.0677, 12.8215], [39.9785, 12.7856], [39.8864, 12.7574], [39.7921, 12.7371], [39.6964, 12.7249], [39.6, 12.7208], [39.5036, 12.7249], [39.4079, 12.7371], [39.3136, 12.7574], [39.2215, 12.7856], [39.1323, 12.8215], [39.0465, 12.8648], [38.965, 12.9152], [38.8882, 12.9723], [38.8167, 13.0357], [38.7512, 13.1049], [38.6921, 13.1794], [38.6398, 13.2586], [38.5948, 13.3419], [38.5574, 13.4287], [38.5279, 13.5184], [38.5065, 13.6102], [38.4934, 13.7035], [38.4887, 13.7975], [38.4925, 13.8916], [38.5047, 13.985], [38.5253, 14.077], [38.5541, 14.1669], [38.5909, 14.254], [38.6354, 14.3377], [38.6873, 14.4173], [38.7461, 14.4922], [38.8116, 14.5618], [38.8831, 14.6256], [38.9601, 14.6832], [39.0421, 14.734], [39.1283, 14.7776], [39.2182, 14.8138], [39.3111, 14.8422], [39.4061, 14.8627], [39.5027, 14.8751], [39.6, 14.8792]]]}, "properties": {"id": "tigray", "name": "Eastern Tigray highlands", "land_type": "Eroded slopes or degraded drylands", "typical_ece_dSm": 0.5, "radius_km": 120, "note": "Exclosures and check dams recharged groundwater", "stage_1": "Close hillsides to grazing, build stone bunds, terraces and check dams.", "stage_2": "Za\u00ef pits and half-moons on crusted fields, farmer-managed regeneration of trees in cropland.", "stage_3": "Recharged aquifers support shallow-well irrigation, and trees supply fodder, fuel and nitrogen.", "plants": "Faidherbia and native regrowth; Fodder grasses on bunds; Sorghum and millet in za\u00ef pits", "approximate": "yes, orientation only"}}, {"type": "Feature", "geometry": {"type": "Polygon", "coordinates": [[[109.0, 40.1476], [109.3587, 40.1351], [109.7142, 40.0977], [110.0636, 40.0357], [110.4037, 39.9497], [110.7319, 39.8404], [111.0452, 39.7087], [111.3411, 39.5557], [111.6173, 39.3829], [111.8715, 39.1916], [112.1019, 38.9834], [112.3067, 38.76], [112.4847, 38.5233], [112.6344, 38.2752], [112.7552, 38.0177], [112.8463, 37.7529], [112.9074, 37.4827], [112.9382, 37.2093], [112.939, 36.9349], [112.91, 36.6614], [112.8517, 36.391], [112.7649, 36.1256], [112.6505, 35.8672], [112.5096, 35.6177], [112.3435, 35.3789], [112.1535, 35.1525], [111.9412, 34.9401], [111.7083, 34.7432], [111.4564, 34.5632], [111.1875, 34.4013], [110.9036, 34.2587], [110.6065, 34.1363], [110.2985, 34.035], [109.9817, 33.9555], [109.6582, 33.8983], [109.3302, 33.8639], [109.0, 33.8524], [108.6698, 33.8639], [108.3418, 33.8983], [108.0183, 33.9555], [107.7015, 34.035], [107.3935, 34.1363], [107.0964, 34.2587], [106.8125, 34.4013], [106.5436, 34.5632], [106.2917, 34.7432], [106.0588, 34.9401], [105.8465, 35.1525], [105.6565, 35.3789], [105.4904, 35.6177], [105.3495, 35.8672], [105.2351, 36.1256], [105.1483, 36.391], [105.09, 36.6614], [105.061, 36.9349], [105.0618, 37.2093], [105.0926, 37.4827], [105.1537, 37.7529], [105.2448, 38.0177], [105.3656, 38.2752], [105.5153, 38.5233], [105.6933, 38.76], [105.8981, 38.9834], [106.1285, 39.1916], [106.3827, 39.3829], [106.6589, 39.5557], [106.9548, 39.7087], [107.2681, 39.8404], [107.5963, 39.9497], [107.9364, 40.0357], [108.2858, 40.0977], [108.6413, 40.1351], [109.0, 40.1476]]]}, "properties": {"id": "loess", "name": "Loess Plateau", "land_type": "Eroded slopes or degraded drylands", "typical_ece_dSm": 1, "radius_km": 350, "note": "Terracing and grazing bans doubled farm incomes", "stage_1": "Close hillsides to grazing, build stone bunds, terraces and check dams.", "stage_2": "Za\u00ef pits and half-moons on crusted fields, farmer-managed regeneration of trees in cropland.", "stage_3": "Recharged aquifers support shallow-well irrigation, and trees supply fodder, fuel and nitrogen.", "plants": "Faidherbia and native regrowth; Fodder grasses on bunds; Sorghum and millet in za\u00ef pits", "approximate": "yes, orientation only"}}, {"type": "Feature", "geometry": {"type": "Polygon", "coordinates": [[[108.3, 41.649], [108.4573, 41.6437], [108.6134, 41.6281], [108.7669, 41.6021], [108.9166, 41.566], [109.0614, 41.5201], [109.2, 41.4648], [109.3315, 41.4005], [109.4547, 41.3277], [109.5686, 41.247], [109.6726, 41.1591], [109.7656, 41.0646], [109.8472, 40.9642], [109.9166, 40.8589], [109.9734, 40.7494], [110.0172, 40.6365], [110.0477, 40.5211], [110.0649, 40.4042], [110.0685, 40.2865], [110.0587, 40.1691], [110.0357, 40.0528], [109.9995, 39.9384], [109.9507, 39.8268], [109.8895, 39.719], [109.8166, 39.6156], [109.7324, 39.5174], [109.6378, 39.4251], [109.5333, 39.3395], [109.4199, 39.2612], [109.2983, 39.1907], [109.1694, 39.1285], [109.0343, 39.0751], [108.8939, 39.0308], [108.7492, 38.9961], [108.6013, 38.9711], [108.4512, 38.9561], [108.3, 38.951], [108.1488, 38.9561], [107.9987, 38.9711], [107.8508, 38.9961], [107.7061, 39.0308], [107.5657, 39.0751], [107.4306, 39.1285], [107.3017, 39.1907], [107.1801, 39.2612], [107.0667, 39.3395], [106.9622, 39.4251], [106.8676, 39.5174], [106.7834, 39.6156], [106.7105, 39.719], [106.6493, 39.8268], [106.6005, 39.9384], [106.5643, 40.0528], [106.5413, 40.1691], [106.5315, 40.2865], [106.5351, 40.4042], [106.5523, 40.5211], [106.5828, 40.6365], [106.6266, 40.7494], [106.6834, 40.8589], [106.7528, 40.9642], [106.8344, 41.0646], [106.9274, 41.1591], [107.0314, 41.247], [107.1453, 41.3277], [107.2685, 41.4005], [107.4, 41.4648], [107.5386, 41.5201], [107.6834, 41.566], [107.8331, 41.6021], [107.9866, 41.6281], [108.1427, 41.6437], [108.3, 41.649]]]}, "properties": {"id": "kubuqi", "name": "Kubuqi Desert", "land_type": "Moving sand or desert", "typical_ece_dSm": 2, "radius_km": 150, "note": "About a third of the desert reported revegetated", "stage_1": "Straw checkerboards, brush fences or solar arrays to cut wind, then sand-binding shrubs.", "stage_2": "Capture every rain with swales, terraces and pits. On coasts, seawater greenhouses or halophyte farms with aquaculture.", "stage_3": "Managed grazing and natural regeneration once there is cover.", "plants": "Sand-binding shrubs (Calligonum, Haloxylon); Date palm and Acacia; Salicornia", "approximate": "yes, orientation only"}}, {"type": "Feature", "geometry": {"type": "Polygon", "coordinates": [[[137.8, -31.7805], [137.8738, -31.7833], [137.947, -31.7914], [138.0191, -31.8049], [138.0896, -31.8236], [138.1579, -31.8474], [138.2236, -31.8762], [138.2861, -31.9097], [138.345, -31.9477], [138.3998, -31.9898], [138.4501, -32.0359], [138.4956, -32.0854], [138.5358, -32.1381], [138.5705, -32.1936], [138.5994, -32.2514], [138.6223, -32.3111], [138.6389, -32.3723], [138.6492, -32.4344], [138.653, -32.4971], [138.6504, -32.5598], [138.6412, -32.6221], [138.6257, -32.6835], [138.6038, -32.7435], [138.5757, -32.8017], [138.5417, -32.8576], [138.502, -32.9107], [138.4569, -32.9608], [138.4066, -33.0073], [138.3517, -33.0499], [138.2925, -33.0884], [138.2295, -33.1223], [138.1632, -33.1515], [138.094, -33.1757], [138.0225, -33.1947], [137.9493, -33.2084], [137.8749, -33.2167], [137.8, -33.2195], [137.7251, -33.2167], [137.6507, -33.2084], [137.5775, -33.1947], [137.506, -33.1757], [137.4368, -33.1515], [137.3705, -33.1223], [137.3075, -33.0884], [137.2483, -33.0499], [137.1934, -33.0073], [137.1431, -32.9608], [137.098, -32.9107], [137.0583, -32.8576], [137.0243, -32.8017], [136.9962, -32.7435], [136.9743, -32.6835], [136.9588, -32.6221], [136.9496, -32.5598], [136.947, -32.4971], [136.9508, -32.4344], [136.9611, -32.3723], [136.9777, -32.3111], [137.0006, -32.2514], [137.0295, -32.1936], [137.0642, -32.1381], [137.1044, -32.0854], [137.1499, -32.0359], [137.2002, -31.9898], [137.255, -31.9477], [137.3139, -31.9097], [137.3764, -31.8762], [137.4421, -31.8474], [137.5104, -31.8236], [137.5809, -31.8049], [137.653, -31.7914], [137.7262, -31.7833], [137.8, -31.7805]]]}, "properties": {"id": "portaugusta", "name": "Upper Spencer Gulf", "land_type": "Moving sand or desert", "typical_ece_dSm": 6, "radius_km": 80, "note": "Arid coast with seawater. Site of Sundrop Farms", "stage_1": "Straw checkerboards, brush fences or solar arrays to cut wind, then sand-binding shrubs.", "stage_2": "Capture every rain with swales, terraces and pits. On coasts, seawater greenhouses or halophyte farms with aquaculture.", "stage_3": "Managed grazing and natural regeneration once there is cover.", "plants": "Sand-binding shrubs (Calligonum, Haloxylon); Date palm and Acacia; Salicornia", "approximate": "yes, orientation only"}}, {"type": "Feature", "geometry": {"type": "Polygon", "coordinates": [[[-99.1, 19.4848], [-99.0792, 19.484], [-99.0586, 19.4814], [-99.0383, 19.4772], [-99.0184, 19.4713], [-98.9992, 19.4637], [-98.9808, 19.4547], [-98.9632, 19.4441], [-98.9468, 19.4322], [-98.9314, 19.4189], [-98.9174, 19.4044], [-98.9048, 19.3889], [-98.8936, 19.3723], [-98.884, 19.3549], [-98.8761, 19.3368], [-98.8699, 19.318], [-98.8654, 19.2989], [-98.8627, 19.2794], [-98.8618, 19.2598], [-98.8628, 19.2403], [-98.8655, 19.2208], [-98.87, 19.2017], [-98.8763, 19.183], [-98.8843, 19.1649], [-98.8939, 19.1475], [-98.9051, 19.1309], [-98.9177, 19.1154], [-98.9318, 19.1009], [-98.9471, 19.0877], [-98.9635, 19.0758], [-98.9811, 19.0653], [-98.9995, 19.0562], [-99.0186, 19.0487], [-99.0384, 19.0428], [-99.0587, 19.0386], [-99.0793, 19.036], [-99.1, 19.0352], [-99.1207, 19.036], [-99.1413, 19.0386], [-99.1616, 19.0428], [-99.1814, 19.0487], [-99.2005, 19.0562], [-99.2189, 19.0653], [-99.2365, 19.0758], [-99.2529, 19.0877], [-99.2682, 19.1009], [-99.2823, 19.1154], [-99.2949, 19.1309], [-99.3061, 19.1475], [-99.3157, 19.1649], [-99.3237, 19.183], [-99.33, 19.2017], [-99.3345, 19.2208], [-99.3372, 19.2403], [-99.3382, 19.2598], [-99.3373, 19.2794], [-99.3346, 19.2989], [-99.3301, 19.318], [-99.3239, 19.3368], [-99.316, 19.3549], [-99.3064, 19.3723], [-99.2952, 19.3889], [-99.2826, 19.4044], [-99.2686, 19.4189], [-99.2532, 19.4322], [-99.2368, 19.4441], [-99.2192, 19.4547], [-99.2008, 19.4637], [-99.1816, 19.4713], [-99.1617, 19.4772], [-99.1414, 19.4814], [-99.1208, 19.484], [-99.1, 19.4848]]]}, "properties": {"id": "xochimilco", "name": "Xochimilco", "land_type": "Seasonally flooded or wetland edge", "typical_ece_dSm": 1.5, "radius_km": 25, "note": "Surviving chinampa zone in Mexico City", "stage_1": "Keep the wetland wet and clean. Pollution and drainage destroy the nutrient source.", "stage_2": "Raised beds from canal mud (chinampas, waru waru) or floating gardens (Bangladesh baira) above the flood level.", "stage_3": "Fish in the canals and water plants as compost close the nutrient loop.", "plants": "Vegetables, maize and flowers on raised beds; Water hyacinth and other aquatic plants; Fish", "approximate": "yes, orientation only"}}, {"type": "Feature", "geometry": {"type": "Point", "coordinates": [109.5, 37]}, "properties": {"id": "loess", "name": "Loess Plateau Watershed Rehabilitation", "kind": "restoration project", "where": "Shaanxi, Shanxi, Gansu and Inner Mongolia, China", "years": "1994 to 2005", "result": "Farm incomes doubled", "lesson": "Restoration paid because farmers moved onto fewer, flatter, more productive terraces and kept the income."}}, {"type": "Feature", "geometry": {"type": "Point", "coordinates": [7.1, 13.5]}, "properties": {"id": "fmnr", "name": "Farmer managed natural regeneration", "kind": "restoration project", "where": "Maradi and Zinder, Niger", "years": "1984 onwards", "result": "About 200 million trees regrown", "lesson": "Regrowing living roots beat planting seedlings. Tenure reform mattered as much as technique."}}, {"type": "Feature", "geometry": {"type": "Point", "coordinates": [39.6, 13.8]}, "properties": {"id": "abreha", "name": "Abreha We Atsbeha watershed", "kind": "restoration project", "where": "Tigray, Ethiopia", "years": "1998 onwards", "result": "Water table rose from 50 m to 5 m", "lesson": "Restoring the hills recharged the aquifer that irrigates the valley. The community chose restoration over resettlement. The 2020 to 2022 war has since damaged much of Tigray's farming."}}, {"type": "Feature", "geometry": {"type": "Point", "coordinates": [-14.5, 15.5]}, "properties": {"id": "ggw", "name": "Great Green Wall", "kind": "restoration project", "where": "Sahel, 20+ countries from Senegal to Djibouti", "years": "2007 onwards", "result": "About 30% of target reported", "lesson": "Top-down planting has struggled. The progress that holds up comes from farmer-led regreening like Niger's."}}, {"type": "Feature", "geometry": {"type": "Point", "coordinates": [108.3, 40.3]}, "properties": {"id": "kubuqi", "name": "Kubuqi Desert restoration", "kind": "restoration project", "where": "Ordos, Inner Mongolia, China", "years": "1988 onwards", "result": "About 6,000 km\u00b2 revegetated", "lesson": "Pairing revegetation with income (energy, plants, tourism) kept the money flowing. Figures come mainly from the project and state reports."}}, {"type": "Feature", "geometry": {"type": "Point", "coordinates": [39.9, 21]}, "properties": {"id": "baydha", "name": "Al Baydha", "kind": "restoration project", "where": "Makkah Province, Saudi Arabia", "years": "2009 to 2016", "result": "Trees survived after irrigation stopped", "lesson": "Even hyperarid slopes can hold water if every rain event is captured. Proof of concept, not yet landscape scale."}}, {"type": "Feature", "geometry": {"type": "Point", "coordinates": [79, 27]}, "properties": {"id": "sodicIndia", "name": "Sodic land reclamation with gypsum", "kind": "restoration project", "where": "Indo-Gangetic Plains, India", "years": "1970s onwards", "result": "16 to 17 Mt of rice and wheat a year", "lesson": "A cheap mineral by-product turned barren land into one of India's breadbaskets."}}, {"type": "Feature", "geometry": {"type": "Point", "coordinates": [117.5, -31.5]}, "properties": {"id": "waSalt", "name": "Saltland pastures of the WA wheatbelt", "kind": "restoration project", "where": "South-west Western Australia", "years": "1990s onwards", "result": "Saltbush feeds sheep on dead land", "lesson": "Turns a liability into autumn feed, but does not reverse the rising water table on its own. Recharge has to be cut upslope."}}, {"type": "Feature", "geometry": {"type": "Point", "coordinates": [55.6, 25.5]}, "properties": {"id": "icba", "name": "Salicornia with fish farm water", "kind": "restoration project", "where": "ICBA, Dubai and Umm Al Quwain, UAE", "years": "2011 onwards", "result": "3 t/ha seed and 23.7 t/ha biomass", "lesson": "Fish effluent tripled biomass. The halophyte cleans the aquaculture water while turning sand and seawater into crops."}}, {"type": "Feature", "geometry": {"type": "Point", "coordinates": [137.8, -32.5]}, "properties": {"id": "sundrop", "name": "Sundrop Farms", "kind": "restoration project", "where": "Port Augusta, South Australia", "years": "2016 onwards", "result": "About 15,000 t of tomatoes a year", "lesson": "Bypasses soil entirely, so it is capital heavy and suits high-value crops rather than staples."}}, {"type": "Feature", "geometry": {"type": "Point", "coordinates": [20.6, 41]}, "properties": {"id": "albania", "name": "Nickel agromining trials", "kind": "restoration project", "where": "Pojsk\u00eb, Albania", "years": "2005 onwards", "result": "Up to 105 to 139 kg Ni/ha a year", "lesson": "Turns soil too toxic for food into a metal crop, while building organic matter and lowering the nickel the next crop sees."}}, {"type": "Feature", "geometry": {"type": "Point", "coordinates": [116.6, 6]}, "properties": {"id": "sabah", "name": "Tropical metal crops", "kind": "restoration project", "where": "Sabah, Malaysian Borneo", "years": "2015 onwards", "result": "First tropical nickel farming trials", "lesson": "The model for rehabilitating ultramafic land in South-east Asia, including land around Indonesia's nickel mines."}}, {"type": "Feature", "geometry": {"type": "Point", "coordinates": [72.4, 31]}, "properties": {"id": "saltPotato", "name": "Salt-tolerant potatoes", "kind": "restoration project", "where": "Salt Farm Texel (Netherlands) and Pakistan", "years": "2015 onwards", "result": "About 30 t/ha at 8 dS/m", "lesson": "Moderately saline land does not have to leave food production. The right variety does much of the work."}}]}